COSMOS 2433 (720)       
1 32275U 07052A   23080.93394017 -.00000079  00000+0  00000+0 0  9997
2 32275  66.0561 355.4598 0003099 287.2806  87.3971  2.13104158119885
COSMOS 2432 (719)       
1 32276U 07052B   23081.23488253 -.00000080  00000+0  00000+0 0  9990
2 32276  66.0697 355.5557 0011861 329.6523 223.4405  2.13103544119888
COSMOS 2434 (721)       
1 32393U 07065A   23080.61822360  .00000005  00000+0  00000+0 0  9992
2 32393  64.3489 231.9752 0004794  78.0370 304.9848  2.13103064118583
COSMOS 2436 (723)       
1 32395U 07065C   23080.46865250  .00000005  00000+0  00000+0 0  9992
2 32395  64.3569 232.0397 0016740   8.3872  35.5250  2.13102952118510
COSMOS 2456 (730)       
1 36111U 09070A   23080.60508184  .00000058  00000+0  00000+0 0  9994
2 36111  64.4324 111.5334 0005593 297.5547 236.9974  2.13099183103242
COSMOS 2457 (733)       
1 36112U 09070B   23080.95729316  .00000054  00000+0  00000+0 0  9991
2 36112  64.4152 111.3903 0004442 192.4100  21.8383  2.13101422103258
COSMOS 2460 (732)       
1 36402U 10007C   23080.81321800 -.00000078  00000+0  00000+0 0  9993
2 36402  65.9217 354.2073 0002285 354.9746  95.2409  2.13106381101608
COSMOS 2476 (744)       
1 37867U 11064A   23080.74478366  .00000058  00000+0  00000+0 0  9992
2 37867  64.7165 112.9921 0023756 239.4664 310.1660  2.13101848 88599
COSMOS 2477 (745)       
1 37868U 11064B   23081.31143644  .00000051  00000+0  00000+0 0  9998
2 37868  64.7295 113.0440 0020999 240.8614 201.4398  2.13101692 88563
COSMOS 2475 (743)       
1 37869U 11064C   23080.47103606  .00000060  00000+0  00000+0 0  9999
2 37869  64.7313 113.0815 0025645 255.6333 220.2150  2.13101895 88555
COSMOS 2485 (747)       
1 39155U 13019A   23080.46706402  .00000061  00000+0  00000+0 0  9994
2 39155  64.8774 113.4892 0024093 235.5889 145.3494  2.13101894 77066
COSMOS 2492 (754)       
1 39620U 14012A   23080.78237027 -.00000078  00000+0  00000+0 0  9991
2 39620  65.8071 353.8510 0014796 325.7254 331.4106  2.13103282 70017
COSMOS 2500 (755)       
1 40001U 14032A   23080.29037507 -.00000077  00000+0  00000+0 0  9994
2 40001  65.7455 353.7091 0004839 218.1007 279.4927  2.13102576 68225
COSMOS 2501 (702K)      
1 40315U 14075A   23080.37563030  .00000004  00000+0  00000+0 0  9992
2 40315  63.6546 231.4836 0017489 204.1123 168.2053  2.13101399 64637
COSMOS 2514 (751)       
1 41330U 16008A   23080.34000509 -.00000077  00000+0  00000+0 0  9993
2 41330  65.5434 353.3292 0008261 219.3544 140.6148  2.13102599 55390
COSMOS 2516 (753)       
1 41554U 16032A   23080.45922012  .00000004  00000+0  00000+0 0  9991
2 41554  63.8809 231.8352 0014303 212.0489 147.8203  2.13106376 53008
COSMOS 2522 (752)       
1 42939U 17055A   23080.74677324  .00000005  00000+0  00000+0 0  9991
2 42939  64.1191 232.3016 0005387 235.0782 197.6099  2.13101903 42768
COSMOS 2527 (756)       
1 43508U 18053A   23080.50510257  .00000061  00000+0  00000+0 0  9990
2 43508  65.0396 113.5458 0009710 239.0910  40.1448  2.13102618 37048
COSMOS 2529 (757)       
1 43687U 18086A   23080.64429302  .00000006  00000+0  00000+0 0  9998
2 43687  64.3289 232.6956 0006975 268.2665  41.2825  2.13102109 34061
COSMOS 2534 (758)       
1 44299U 19030A   23080.60932377  .00000006  00000+0  00000+0 0  9995
2 44299  64.4015 232.6076 0009937 293.4363 123.6176  2.13102034 29715
COSMOS 2544 (759)       
1 44850U 19088A   23081.13453367  .00000055  00000+0  16595+1 0  9998
2 44850  65.0246 113.3728 0014644 259.8240 185.5190  2.13102348 25493
COSMOS 2545 (760)       
1 45358U 20018A   23080.40688250 -.00000079  00000+0  00000+0 0  9997
2 45358  64.8841 353.7081 0008822 261.1867 195.0837  2.13102748 23439
COSMOS 2547 (705K)      
1 46805U 20075A   23080.52690806  .00000006  00000+0  00000+0 0  9990
2 46805  64.6286 232.1168 0005355 239.2403 163.2087  2.13103106 18688
COSMOS 2557 (706K)      
1 52984U 22075A   23080.33930014 -.00000080  00000+0  10000-3 0  9992
2 52984  64.7942 355.8884 0012847 288.5597 206.4396  2.13101842  5477
COSMOS 2559 (707K)      
1 54031U 22130A   23080.43492784 -.00000081  00000+0  00000+0 0  9993
2 54031  64.7645 356.0177 0005414 236.2544  17.1691  2.13101018  3450
COSMOS 2564 (761)       
1 54377U 22161A   23080.78309034  .00000006  00000+0  00000+0 0  9999
2 54377  64.7679 232.1307 0007136 209.0252 162.2284  2.13102201  2416
